[{"OBJECT_NAME":"KUIPER-00011","OBJECT_ID":"2025-088D","EPOCH":"2026-03-09T06:15:09.756576","MEAN_MOTION":14.79821634,"ECCENTRICITY":9.971e-5,"INCLINATION":51.8995,"RA_OF_ASC_NODE":92.5537,"ARG_OF_PERICENTER":103.2236,"MEAN_ANOMALY":256.8837,"EPHEMERIS_TYPE":0,"CLASSIFICATION_TYPE":"U","NORAD_CAT_ID":63727,"ELEMENT_SET_NO":999,"REV_AT_EPOCH":4769,"BSTAR":0.00052945008,"MEAN_MOTION_DOT":3.807e-5,"MEAN_MOTION_DDOT":0},{"OBJECT_NAME":"SL-14 R\/B","OBJECT_ID":"1986-046B","EPOCH":"2026-03-09T12:54:35.152704","MEAN_MOTION":14.85590147,"ECCENTRICITY":0.00219619,"INCLINATION":82.4783,"RA_OF_ASC_NODE":80.3252,"ARG_OF_PERICENTER":225.8935,"MEAN_ANOMALY":134.0474,"EPHEMERIS_TYPE":0,"CLASSIFICATION_TYPE":"U","NORAD_CAT_ID":16792,"ELEMENT_SET_NO":999,"REV_AT_EPOCH":12638,"BSTAR":6.3515191e-5,"MEAN_MOTION_DOT":5.75e-6,"MEAN_MOTION_DDOT":0}]
